[{"OBJECT_NAME":"ICEYE-X7","OBJECT_ID":"2020-068L","EPOCH":"2026-03-09T22:52:28.702272","MEAN_MOTION":15.29152508,"ECCENTRICITY":0.00068409,"INCLINATION":97.7412,"RA_OF_ASC_NODE":31.2076,"ARG_OF_PERICENTER":332.3045,"MEAN_ANOMALY":27.7829,"EPHEMERIS_TYPE":0,"CLASSIFICATION_TYPE":"U","NORAD_CAT_ID":46496,"ELEMENT_SET_NO":999,"REV_AT_EPOCH":29961,"BSTAR":0.0005654802,"MEAN_MOTION_DOT":0.00015947,"MEAN_MOTION_DDOT":0},{"OBJECT_NAME":"STARLINK-34994","OBJECT_ID":"2025-225Q","EPOCH":"2026-03-09T21:37:36.822432","MEAN_MOTION":15.30202022,"ECCENTRICITY":0.00012594,"INCLINATION":53.1588,"RA_OF_ASC_NODE":164.4695,"ARG_OF_PERICENTER":79.0363,"MEAN_ANOMALY":281.078,"EPHEMERIS_TYPE":0,"CLASSIFICATION_TYPE":"U","NORAD_CAT_ID":65924,"ELEMENT_SET_NO":999,"REV_AT_EPOCH":2444,"BSTAR":0.00091783582,"MEAN_MOTION_DOT":0.00026925,"MEAN_MOTION_DDOT":0}]
